NAME,EMAIL,STREET ADDRESS,UNIT,CITY,STATE,ZIP CODE,PHONE NUMBER,PASSWORD,CSV
Ryan Foster,georginabruno9093@asymail.com,2324 E Huntington ST,RM 30,Ozark,MO,65721,8196413297,Protein_07,900
Owen Mitchell,alanmoore5819@asymail.com,2324 E Huntington ST,RM 10,Ozark,MO,65721,7840648945,Protein_07,583
Olivia Ramirez,virginialeversee8712@asymail.com,2324 E Huntington ST,Apt 288,Ozark,MO,65721,5260586647,Protein_07,035
Nicholas Ward,lewisacevedo5301@asymail.com,2324 E Huntington ST,FL 6 RM 23,Ozark,MO,65721,8750777837,Protein_07,169
Nicholas Ward,carolbarrow9598@asymail.com,2324 E Huntington ST,Ste 852,Ozark,MO,65721,7597073907,Protein_07,379
Nathan Jackson,kristingordon7025@asymail.com,2324 E Huntington ST,RM 23,Ozark,MO,65721,7646650053,Protein_07,699
Natalie Gray,wandacrockwell3670@asymail.com,2324 E Huntington ST,BLDG 2 APT 68,Ozark,MO,65721,6930521287,Protein_07,035
Natalie Cook,davidchapman7987@asymail.com,2324 E Huntington ST,apt 818,Ozark,MO,65721,2545410963,Protein_07,867
Michael Perez,claudefrost4150@asymail.com,2324 E Huntington ST,FL 9 RM 29,Ozark,MO,65721,6440650397,Protein_07,851
Michael Foster,debramoffatt4253@asymail.com,2324 E Huntington ST,FL 11 RM 38,Ozark,MO,65721,5149690637,Protein_07,107
Mia Turner,dannyjoubert5521@asymail.com,2324 E Huntington ST,BLDG 7 APT 236,Ozark,MO,65721,8911774017,Protein_07,325
Mia Robinson,philipveit4974@asymail.com,2324 E Huntington ST,BLDG 5 APT 436,Ozark,MO,65721,2653262486,Protein_07,650
Matthew Edwards,kevingranger9894@asymail.com,2324 E Huntington ST,RM 20,Ozark,MO,65721,9332332007,Protein_07,139
Mason Hernandez,brianclark3142@asymail.com,2324 E Huntington ST,FL 11 RM 32,Ozark,MO,65721,8776488565,Protein_07,079
Madison Lee,antoniasutton1664@asymail.com,2324 E Huntington ST,apt 209,Ozark,MO,65721,3275645346,Protein_07,140
Madison Bennett,normamaddox1065@asymail.com,2324 E Huntington ST,Apt 538,Ozark,MO,65721,4133387479,Protein_07,525
Lily Wood,reneemilosevic7557@asymail.com,2324 E Huntington ST,Apt 152,Ozark,MO,65721,9328806995,Protein_07,825
Jacob Davis,annlopez1587@asymail.com,2324 E Huntington ST,FL 5 RM 10,Ozark,MO,65721,2858620657,Protein_07,445
Jackson Garcia,damonolson5898@asymail.com,2324 E Huntington ST,RM 12,Ozark,MO,65721,3895149257,Protein_07,120
Isabella Williams,marysenay6282@asymail.com,2324 E Huntington ST,apt 366,Ozark,MO,65721,3504363867,Protein_07,544
Isabella Martinez,dorothyboyd2177@asymail.com,2324 E Huntington ST,FL 5 RM 9,Ozark,MO,65721,5477485682,Protein_07,853
Isaac Martin,audreycummings9426@asymail.com,2324 E Huntington ST,FL 3 RM 5,Ozark,MO,65721,5811283027,Protein_07,490
Isaac Coleman,shaunajohnson3187@asymail.com,2324 E Huntington ST,FL 2 RM 2,Ozark,MO,65721,7153998533,Protein_07,313
Harper Green,ruththomas4644@asymail.com,2324 E Huntington ST,apt 458,Ozark,MO,65721,5866856565,Protein_07,693
Grace Peterson,stacybrown4407@asymail.com,2324 E Huntington ST,BLDG 5 APT 463,Ozark,MO,65721,7643687927,Protein_07,583
Grace Gonzalez,mollydaniels5251@asymail.com,2324 E Huntington ST,BLDG 4 APT 261,Ozark,MO,65721,3236181663,Protein_07,358
Gabriel Parker,cynthiabutler1371@asymail.com,2324 E Huntington ST,FL 10 RM 19,Ozark,MO,65721,7758712977,Protein_07,096
Gabriel Parker,willienovoa5136@asymail.com,2324 E Huntington ST,RM 35,Ozark,MO,65721,2732037387,Protein_07,934
Ethan Perez,marykittler6408@asymail.com,2324 E Huntington ST,RM 21,Ozark,MO,65721,4117549947,Protein_07,139
Ethan Kim,ellencarney6969@asymail.com,2324 E Huntington ST,FL 8 RM 24,Ozark,MO,65721,9034417516,Protein_07,108
Emma Smith,maryfarrell8926@asymail.com,2324 E Huntington ST,RM 17,Ozark,MO,65721,8124473366,Protein_07,757
Emily Turner,constancemoore5780@asymail.com,2324 E Huntington ST,BLDG 7 APT 571,Ozark,MO,65721,9148982627,Protein_07,108
Elizabeth Rivera,donaldhooper6306@asymail.com,2324 E Huntington ST,Ste 327,Ozark,MO,65721,2730761533,Protein_07,757
Elizabeth Flores,sarahivy4417@asymail.com,2324 E Huntington ST,Ste 697,Ozark,MO,65721,9329343137,Protein_07,720
Elizabeth Cooper,janiehaggerty4711@asymail.com,2324 E Huntington ST,Ste 858,Ozark,MO,65721,3039538577,Protein_07,245
Elijah Taylor,jeffreydestefano6415@asymail.com,2324 E Huntington ST,FL 4 RM 15,Ozark,MO,65721,4233341342,Protein_07,291
Elijah Powell,amymiller4141@asymail.com,2324 E Huntington ST,FL 1 RM 4,Ozark,MO,65721,5788219861,Protein_07,298
Dylan Jones,friedacarrano6099@asymail.com,2324 E Huntington ST,Ste 505,Ozark,MO,65721,7286928142,Protein_07,040
David Lewis,annielagrimas8635@asymail.com,2324 E Huntington ST,FL 7 RM 27,Ozark,MO,65721,8618921317,Protein_07,125
Daniel Wright,migueltidwell9016@asymail.com,2324 E Huntington ST,FL 3 RM 3,Ozark,MO,65721,4672645005,Protein_07,900
Christopher Martinez,heatherreed7288@asymail.com,2324 E Huntington ST,FL 6 RM 21,Ozark,MO,65721,2826568707,Protein_07,079
Christopher Lee,roberttoscano2794@asymail.com,2324 E Huntington ST,FL 11 RM 36,Ozark,MO,65721,3035508287,Protein_07,650
Christopher Campbell,gracetrivett8221@asymail.com,2324 E Huntington ST,FL 2 RM 7,Ozark,MO,65721,5001417207,Protein_07,313
Christian Reyes,johnbrooks7631@asymail.com,2324 E Huntington ST,RM 28,Ozark,MO,65721,4258082447,Protein_07,934
Chloe Wright,peggymathews7624@asymail.com,2324 E Huntington ST,BLDG 1 APT 80,Ozark,MO,65721,5420993605,Protein_07,456
Charlotte Clark,oracamerano3191@asymail.com,2324 E Huntington ST,BLDG 3 APT 129,Ozark,MO,65721,5564348676,Protein_07,720
Caleb Wilson,felipebenoit4019@asymail.com,2324 E Huntington ST,Ste 212,Ozark,MO,65721,9070383052,Protein_07,291
Caleb Rodriguez,lindabanh5010@asymail.com,2324 E Huntington ST,RM 8,Ozark,MO,65721,3372001627,Protein_07,544
Brandon Reyes,kirkkiger1741@asymail.com,2324 E Huntington ST,RM 15,Ozark,MO,65721,9099144567,Protein_07,443
Brandon Cox,mariebaker5539@asymail.com,2324 E Huntington ST,apt 911,Ozark,MO,65721,2608499667,Protein_07,995
Benjamin Gonzalez,pagejohnson1298@asymail.com,2324 E Huntington ST,Ste 503,Ozark,MO,65721,5501921127,Protein_07,826
Benjamin Davis,robbiewilliams6495@asymail.com,2324 E Huntington ST,RM 33,Ozark,MO,65721,8934180736,Protein_07,826
Avery Evans,cheriefigueroa4510@asymail.com,2324 E Huntington ST,Apt 694,Ozark,MO,65721,5097010569,Protein_07,699
Ava Richardson,jeaninewhite3415@asymail.com,2324 E Huntington ST,apt 131,Ozark,MO,65721,9356187735,Protein_07,932
Ava Baker,billvang6991@asymail.com,2324 E Huntington ST,Ste 630,Ozark,MO,65721,4117315943,Protein_07,250
Audrey Ortiz,neilarrott7949@asymail.com,2324 E Huntington ST,BLDG 2 APT 62,Ozark,MO,65721,5205372433,Protein_07,521
Audrey Ortiz,forrestowens8199@asymail.com,2324 E Huntington ST,apt 673,Ozark,MO,65721,3303093907,Protein_07,325
Aubrey Flores,paulbarksdale2752@asymail.com,2324 E Huntington ST,BLDG 7 APT 279,Ozark,MO,65721,6779570427,Protein_07,413
Aubrey Cook,robinmoon4041@asymail.com,2324 E Huntington ST,BLDG 6 APT 303,Ozark,MO,65721,7940395203,Protein_07,035
Anthony Phillips,jonathannikas6526@asymail.com,2324 E Huntington ST,Ste 691,Ozark,MO,65721,4274641727,Protein_07,173
Anna Reed,chriscaudill8850@asymail.com,2324 E Huntington ST,BLDG 5 APT 294,Ozark,MO,65721,6524486577,Protein_07,716
Anna Nguyen,rhondaalbert2911@asymail.com,2324 E Huntington ST,BLDG 3 APT 125,Ozark,MO,65721,5243709191,Protein_07,851
Andrew Adams,georgezigler3852@asymail.com,2324 E Huntington ST,Ste 727,Ozark,MO,65721,3711887777,Protein_07,035
Alexis Turner,princeking4631@asymail.com,2324 E Huntington ST,BLDG 6 APT 255,Ozark,MO,65721,8758784457,Protein_07,173
Alexander Wright,sharipropheter2549@asymail.com,2324 E Huntington ST,FL 8 RM 25,Ozark,MO,65721,5221758105,Protein_07,853
Alexander Hall,josephhall4722@asymail.com,2324 E Huntington ST,rm 1,Ozark,MO,65721,2665514012,Protein_07,932
Addison Phillips,victorlowe3931@asymail.com,2324 E Huntington ST,BLDG 9 APT 701,Ozark,MO,65721,4549352147,Protein_07,379
Addison Coleman,michaelhoward8697@asymail.com,2324 E Huntington ST,Ste 282,Ozark,MO,65721,5009838173,Protein_07,250
Abigail Ramirez,haroldcox3188@asymail.com,2324 E Huntington ST,Apt 783,Ozark,MO,65721,6113111416,Protein_07,742
Joseph Collins,victoriathornton4514@asymail.com,2324 E Huntington ST,FL 4 RM 14,Ozark,MO,65721,9266956627,Protein_07,303